OBJECT_NAME,OBJECT_ID,EPOCH,MEAN_MOTION,ECCENTRICITY,INCLINATION,RA_OF_ASC_NODE,ARG_OF_PERICENTER,MEAN_ANOMALY,EPHEMERIS_TYPE,CLASSIFICATION_TYPE,NORAD_CAT_ID,ELEMENT_SET_NO,REV_AT_EPOCH,BSTAR,MEAN_MOTION_DOT,MEAN_MOTION_DDOT
STARLINK-37523,2026-133W,2026-07-18T22:00:01.999584,15.35403607,.00010694,53.1608,166.7117,75.3183,357.1083,0,U,69528,999,611,.68729276E-3,.23671E-3,0
STARLINK-37369,2026-133X,2026-07-18T22:00:01.999584,15.35411447,.00016961,53.1610,166.7088,108.4719,324.7804,0,U,69529,999,604,.8006007E-3,.27659E-3,0
STARLINK-37670,2026-133Y,2026-07-16T05:49:33.006432,15.48616247,.0002057,53.1603,179.3186,126.3944,233.7255,0,U,69530,999,659,-.69913E-2,-.362867E-2,0
STARLINK-37897,2026-133Z,2026-07-18T15:12:58.718880,15.35404268,.00011507,53.1611,167.9219,65.2999,294.8123,0,U,69531,999,696,.37102979E-3,.12585E-3,0
STARLINK-37933,2026-133AA,2026-07-18T05:46:58.314144,15.35411531,.00012198,53.1615,170.4534,108.0576,252.0560,0,U,69532,999,689,.31166967E-3,.1051E-3,0
STARLINK-37890,2026-133AB,2026-07-18T07:17:21.239520,15.34391839,.00015153,53.1604,170.1277,83.6199,276.4976,0,U,69533,999,690,.15051585E-3,.4711E-4,0
STARLINK-37407,2026-133AC,2026-07-18T21:07:57.793728,15.33556023,.00016394,53.1603,167.3253,83.3363,276.7826,0,U,69534,999,698,.24704777E-3,.7762E-4,0
STARLINK-37888,2026-133AD,2026-07-18T07:05:13.980480,15.34396856,.00016046,53.1599,170.0692,66.9640,293.1532,0,U,69535,999,689,.47242115E-3,.15617E-3,0
STARLINK-37889,2026-133AE,2026-07-18T22:00:01.999584,15.39274278,.00010336,53.1602,166.9256,74.4542,256.7370,0,U,69536,999,610,-.80482401E-1,-.2826696E-1,0
2026-134A,2026-134A,2026-07-18T17:52:48.993600,15.09481250,.00164848,97.6997,269.9753,159.5096,200.6798,0,U,69538,999,507,.19158202E-3,.3012E-4,0
2026-134B,2026-134B,2026-07-18T22:34:08.603040,15.09640232,.00165934,97.6971,270.1687,161.2213,198.9632,0,U,69539,999,509,.1963991E-3,.3103E-4,0
2026-134C,2026-134C,2026-07-18T17:46:46.976736,15.09670955,.00159921,97.6977,269.9725,162.8660,197.3112,0,U,69540,999,506,.18832673E-3,.2975E-4,0
2026-134D,2026-134D,2026-07-18T17:44:56.484960,15.09729322,.00170462,97.7017,269.9909,162.6023,197.5793,0,U,69541,999,506,.18667592E-3,.2954E-4,0
2026-134E,2026-134E,2026-07-18T22:30:33.659712,15.09752736,.00168234,97.7036,270.1993,162.6198,197.5610,0,U,69542,999,509,.19669043E-3,.3118E-4,0
2026-134F,2026-134F,2026-07-18T17:42:46.636128,15.09796486,.00160525,97.6988,269.9809,164.7473,195.4243,0,U,69543,999,506,.18361014E-3,.2909E-4,0
2026-134G,2026-134G,2026-07-18T22:26:22.428384,15.09883860,.00165672,97.7033,270.2017,164.9019,195.2708,0,U,69544,999,509,.19027549E-3,.3024E-4,0
2026-134H,2026-134H,2026-07-18T22:24:14.461344,15.09950948,.00163974,97.7019,270.1976,166.1043,194.0641,0,U,69545,999,508,.18759132E-3,.2986E-4,0
STARLINK-37880,2026-135A,2026-07-18T13:27:12.626784,15.49223844,.0001234,97.2856,227.8885,278.6962,81.4149,0,U,69546,999,518,.70672E-3,.38581E-3,0
STARLINK-37881,2026-135B,2026-07-18T12:31:02.433216,15.49212572,.00003438,97.2854,227.9396,149.6524,210.4747,0,U,69547,999,518,.52598924E-3,.28644E-3,0
STARLINK-37265,2026-135C,2026-07-18T13:14:31.536096,15.49211706,.0000772,97.2862,228.0530,355.4508,4.6736,0,U,69548,999,519,.62399E-3,.3402E-3,0
STARLINK-37871,2026-135D,2026-07-18T12:36:16.950816,15.49200118,.00012327,97.2849,227.9354,96.8959,263.2432,0,U,69549,999,518,.36695451E-3,.19925E-3,0
STARLINK-37865,2026-135E,2026-07-18T12:29:04.252704,15.49216987,.00005001,97.2840,227.9412,111.2615,248.8689,0,U,69550,999,518,.69644176E-3,.38007E-3,0
STARLINK-37862,2026-135F,2026-07-18T22:00:01.999584,15.49153702,.00012419,97.2856,228.4152,89.8437,127.5570,0,U,69551,999,607,.12019606E-2,.65747E-3,0
STARLINK-37861,2026-135G,2026-07-18T19:59:53.442816,15.49195118,.00007299,97.2833,228.2825,161.7334,198.3944,0,U,69552,999,523,.44800751E-3,.24355E-3,0
STARLINK-37859,2026-135H,2026-07-18T12:04:44.678496,15.49203056,.00021365,97.2862,227.9694,112.4481,247.6997,0,U,69553,999,518,.32830115E-3,.17815E-3,0
STARLINK-37860,2026-135J,2026-07-18T19:26:44.270304,15.49203203,.00007851,97.2844,228.3148,145.1285,215.0018,0,U,69554,999,523,.4736543E-3,.25767E-3,0
STARLINK-37858,2026-135K,2026-07-18T19:34:57.221184,15.49208211,.00004652,97.2853,228.3075,123.7438,236.3858,0,U,69555,999,523,.36926889E-3,.20057E-3,0
STARLINK-37927,2026-135L,2026-07-18T20:03:41.607936,15.49207398,.00016853,97.2837,228.2796,93.0862,267.0582,0,U,69556,999,523,.64872525E-3,.35374E-3,0
STARLINK-37929,2026-135M,2026-07-18T12:43:40.771200,15.49213014,.00015656,97.2843,227.9285,88.8403,271.3027,0,U,69557,999,518,.61887771E-3,.33742E-3,0
STARLINK-37954,2026-135N,2026-07-18T12:41:54.376512,15.49213131,.00004089,97.2848,227.9305,142.7142,217.4138,0,U,69558,999,518,.48124511E-3,.26192E-3,0
STARLINK-37958,2026-135P,2026-07-18T22:00:01.999584,15.48669520,.00014141,97.2850,228.4784,78.9506,287.8334,0,U,69559,999,602,-.57462086E-1,-.269528E-1,0
STARLINK-37950,2026-135Q,2026-07-18T19:27:20.331072,15.49200979,.00010279,97.2841,228.3137,105.4408,254.6957,0,U,69560,999,523,.42359924E-3,.23025E-3,0
STARLINK-37952,2026-135R,2026-07-18T19:56:47.912640,15.49208605,.00015152,97.2836,228.2861,101.5275,258.6146,0,U,69561,999,523,.65580738E-3,.35764E-3,0
STARLINK-37935,2026-135S,2026-07-18T12:39:25.638048,15.49200920,.00012801,97.2849,227.9328,94.2611,265.8786,0,U,69562,999,518,.36498897E-3,.19818E-3,0
STARLINK-37936,2026-135T,2026-07-18T20:04:21.033984,15.49204743,.00013594,97.2836,228.2783,98.7211,261.4194,0,U,69563,999,523,.52301771E-3,.28474E-3,0
STARLINK-37932,2026-135U,2026-07-18T12:52:29.155584,15.49215955,.0000506,97.2840,228.0756,109.8484,250.2822,0,U,69564,999,519,.46335E-3,.25214E-3,0
STARLINK-37916,2026-135V,2026-07-18T13:17:20.746176,15.49215494,.0000504,97.2860,228.0520,71.0627,289.0678,0,U,69565,999,519,.56108E-3,.30571E-3,0
STARLINK-37909,2026-135W,2026-07-18T22:00:01.999584,15.49186779,.00011792,97.2845,228.5249,90.9752,19.4280,0,U,69566,999,603,-.37419657E-3,-.20388E-3,0
STARLINK-37934,2026-135X,2026-07-18T13:16:37.173792,15.49212332,.0000266,97.2860,228.0537,16.3746,343.7514,0,U,69567,999,520,.50318E-3,.27393E-3,0
STARLINK-37938,2026-135Y,2026-07-18T12:17:22.753824,15.49215382,.00006429,97.2834,227.9543,124.7183,235.4129,0,U,69568,999,518,.55522571E-3,.3025E-3,0
STARLINK-37924,2026-135Z,2026-07-18T15:59:02.235840,15.49208958,.00013525,97.2840,228.2048,96.7316,263.4090,0,U,69569,999,521,.39876378E-3,.21672E-3,0
SHIJIAN-31 (SJ-31),2026-136A,2026-07-18T16:59:33.073152,1.92222096,.69397324,63.4888,352.8336,171.8590,212.2265,0,U,69570,999,69,0,.151E-5,0
GUOWANG OBJECT A,2026-137A,2026-07-12T21:25:09.001056,13.89812741,.0012495,49.9997,153.0717,311.3863,48.5960,0,U,69572,999,359,.2450247E-5,-.143E-5,0
GUOWANG OBJECT B,2026-137B,2026-07-09T15:41:33.480672,13.89803849,.00118595,50.0016,165.9303,298.8434,61.1273,0,U,69573,999,315,-.55136387E-4,-.214E-5,0
GUOWANG OBJECT C,2026-137C,2026-07-12T21:19:24.187296,13.89814739,.0011896,49.9967,153.0345,311.4365,48.5511,0,U,69574,999,360,-.2748005E-4,-.18E-5,0
GUOWANG OBJECT D,2026-137D,2026-07-16T15:10:32.607840,13.85253720,.00005476,49.9997,138.1865,308.4892,51.5955,0,U,69575,999,412,-.52974018E-4,-.205E-5,0
GUOWANG OBJECT E,2026-137E,2026-07-12T00:33:49.286304,13.89824941,.00112248,50.0038,156.4799,310.0552,49.9361,0,U,69576,999,348,-.46562868E-4,-.204E-5,0
GUOWANG OBJECT F,2026-137F,2026-07-11T07:17:14.089920,13.89809360,.00108344,50.0028,159.3340,307.7048,52.2867,0,U,69577,999,338,-.46814787E-4,-.204E-5,0
GUOWANG OBJECT G,2026-137G,2026-07-11T07:16:00.337152,13.89795025,.0010806,49.9952,159.3085,307.5258,52.4657,0,U,69578,999,338,.35461E-5,-.142E-5,0
GUOWANG OBJECT H,2026-137H,2026-07-10T00:11:03.674688,13.89776278,.00102494,50.0012,164.4679,306.3680,53.6272,0,U,69579,999,320,-.23862216E-4,-.175E-5,0
GUOWANG OBJECT J,2026-137J,2026-06-27T06:41:01.268160,13.91997107,.0011832,49.9961,215.0979,257.3150,102.6427,0,U,69580,999,143,.13174E-3,.22E-6,0
CENTISPACE-1 GROUP 05 OBJECT A,2026-138A,2026-07-18T22:04:49.506816,14.15473518,.00117916,55.1398,164.0032,352.5151,7.5645,0,U,69582,999,451,.16879082E-3,.178E-5,0
CENTISPACE-1 GROUP 05 OBJECT B,2026-138B,2026-07-18T06:43:51.326688,14.15651809,.00107231,55.1386,166.3272,351.7052,8.3744,0,U,69583,999,442,.10948158E-3,.62E-6,0
CENTISPACE-1 GROUP 05 OBJECT C,2026-138C,2026-07-18T15:09:32.640192,14.15734919,.0010702,55.1392,165.0222,354.2505,5.8345,0,U,69584,999,447,.88215E-4,.2E-6,0
CENTISPACE-1 GROUP 05 OBJECT D,2026-138D,2026-07-18T21:50:30.734016,14.15919200,.00102856,55.1389,163.9499,354.1681,5.9172,0,U,69585,999,451,.30330533E-4,-.94E-6,0
CENTISPACE-1 GROUP 05 OBJECT E,2026-138E,2026-07-18T21:48:21.987648,14.15986071,.00100308,55.1379,163.9487,354.8687,5.2183,0,U,69586,999,451,.22495303E-4,-.109E-5,0
CENTISPACE-1 GROUP 05 OBJECT F,2026-138F,2026-07-18T04:53:59.123328,14.15909552,.00098789,55.1383,166.5669,357.0097,3.0817,0,U,69587,999,441,.2466631E-4,-.105E-5,0
CENTISPACE-1 GROUP 05 OBJECT G,2026-138G,2026-07-18T14:58:39.908928,14.16072253,.0009202,55.1383,164.9799,358.0047,2.0890,0,U,69588,999,447,-.19607E-4,-.193E-5,0
SPACEMOBILE-008,2026-139A,2026-07-18T22:02:44.104992,15.12805365,.00051959,52.9950,118.5029,65.3049,294.8482,0,U,69589,999,478,.37934499E-4,.372E-5,0
SPACEMOBILE-009,2026-139B,2026-07-18T22:05:56.314752,15.12698741,.00054486,52.9941,118.5109,61.6062,298.5477,0,U,69590,999,478,.36602007E-4,.347E-5,0
SPACEMOBILE-010,2026-139C,2026-07-18T19:00:42.062400,15.12537049,.00054392,52.9947,119.1356,53.7113,306.4380,0,U,69591,999,477,.76987258E-4,.1057E-4,0
KUIPER-00423,2026-140A,2026-07-18T19:40:46.986528,15.38536525,.0013924,51.8782,245.4942,284.2979,75.6462,0,U,69592,999,610,.37710411E-3,.14242E-3,0
KUIPER-00428,2026-140B,2026-07-18T20:41:46.499136,15.36998871,.000749,51.8792,245.7672,41.4852,318.6702,0,U,69593,999,610,.34944019E-3,.12484E-3,0
KUIPER-00481,2026-140C,2026-07-18T13:44:24.316224,15.38069373,.001102,51.8772,246.8276,293.2582,66.7245,0,U,69594,999,606,.16192E-3,.5778E-4,0
